0 GORIZONT 8
1 14532U 83118A   13281.50013459 -.00000233  00000-0  10000-3 0  1588
2 14532 015.3515 357.2846 0029278 068.3784 291.9484 00.98271426 74991
0 GORIZONT 8
1 14532U 83118A   13282.51767953 -.00000235  00000-0  10000-3 0  1598
2 14532 015.3510 357.2728 0028732 069.0420 291.2752 00.98271349 75002
0 GORIZONT 8
1 14532U 83118A   13283.53526130  .00000000  00000-0  10000-3 0  1602
2 14532 015.3518 357.2637 0028810 068.7996 291.5220 00.98266835 75018
0 GORIZONT 8
1 14532U 83118A   13286.58791129 -.00000175  00000-0  10000-3 0  1617
2 14532 015.3515 357.2321 0028481 069.1098 291.1968 00.98269874 75041
0 GORIZONT 8
1 14532U 83118A   13290.65820075 -.00000065  00000-0  10000-3 0  1622
2 14532 015.3521 357.1913 0028399 069.2137 291.0796 00.98268050 75084
0 GORIZONT 8
1 14532U 83118A   13292.69337886 -.00000029  00000-0  10000-3 0  1632
2 14532 015.3526 357.1708 0028193 069.5418 290.7505 00.98267688 75101
0 GORIZONT 8
1 14532U 83118A   13294.72856996 -.00000021  00000-0  10000-3 0  1649
2 14532 015.3530 357.1505 0028271 069.6092 290.6860 00.98267807 75125
